[{"OBJECT_ID":"1968-050D","OBJECT_NAME":"OPS 9344 (IDSCS 23)","NORAD_CAT_ID":"3287","OBJECT_TYPE":"PAYLOAD","PERIOD":"1337.788","INCLINATION":"1.0934","APOGEE":"33947.491","PERIGEE":"33731.875","ECCENTRICITY":"0.0026806","MEAN_MOTION":"1.07640323","TLE_LINE1":"1 03287U 68050D   16237.10958697 -.00000107  00000-0  00000+0 0  9991","TLE_LINE2":"2 03287   1.0934   9.7285 0026806 117.6171 189.4908  1.07640323189256","LAUNCH_DATE":"1968-06-13","LAUNCH_SITE":"AIR FORCE EASTERN TEST RANGE","OWNER":"UNITED STATES OF AMERICA","ORBIT_TYPE":"Unclassified","OPERATIONAL_STATUS":"Nonoperational","satInfo":{"lng":-89.89321040414586,"lat":1.0169064668103218,"elevation":-7.982191664909395,"azimuth":44.89321040414583,"range":40640.08884885498,"height":33874.5343171594,"velocity":3.1454920622629072},"x":-253,"y":-1,"dx":0.00586265924758099,"dy":-3.145486598761073},{"OBJECT_ID":"1968-050E","OBJECT_NAME":"OPS 9345 (IDSCS 24)","NORAD_CAT_ID":"3288","OBJECT_TYPE":"PAYLOAD","PERIOD":"1339.813","INCLINATION":"1.0931","APOGEE":"34028.647","PERIGEE":"33731.870","ECCENTRICITY":"0.0036859","MEAN_MOTION":"1.07477632","TLE_LINE1":"1  3288U 68050E   16238.43278596 -.00000072 +00000-0 +00000-0 0  9994","TLE_LINE2":"2  3288 001.0931 004.0549 0036859 118.8344 164.3357 01.07477632100736","LAUNCH_DATE":"1968-06-13","LAUNCH_SITE":"AIR FORCE EASTERN TEST RANGE","OWNER":"UNITED STATES OF AMERICA","ORBIT_TYPE":"Unclassified","OPERATIONAL_STATUS":"Nonoperational","satInfo":{"lng":137.2327952033448,"lat":-1.0923677079695089,"elevation":-10.020216837416186,"azimuth":177.76720479665516,"range":40950.63846545201,"height":33955.18001923224,"velocity":3.1407841312105824},"x":172,"y":196,"dx":-2.3057081931790466,"dy":2.1326590648228865},{"OBJECT_ID":"1968-050G","OBJECT_NAME":"OPS 9347 (IDSCS 26)","NORAD_CAT_ID":"3290","OBJECT_TYPE":"PAYLOAD","PERIOD":"1345.357","INCLINATION":"1.0961","APOGEE":"34249.760","PERIGEE":"33732.694","ECCENTRICITY":"0.0064042","MEAN_MOTION":"1.07034781","TLE_LINE1":"1 03290U 68050G   16238.42333675 -.00000070  00000-0  00000+0 0  9993","TLE_LINE2":"2 03290   1.0961 352.8848 0064042 124.9404 181.6734  1.07034781100564","LAUNCH_DATE":"1968-06-13","LAUNCH_SITE":"AIR FORCE EASTERN TEST RANGE","OWNER":"UNITED STATES OF AMERICA","ORBIT_TYPE":"Unclassified","OPERATIONAL_STATUS":"Nonoperational","satInfo":{"lng":118.47651717580905,"lat":-0.6923743477091885,"elevation":-9.606455419881195,"azimuth":196.52348282419092,"range":41019.75894144981,"height":34069.36184230619,"velocity":3.136225538096074},"x":223,"y":128,"dx":-1.4953477410998395,"dy":2.756781775729377},{"OBJECT_ID":"1968-050H","OBJECT_NAME":"OPS 9348 (IDSCS 27)","NORAD_CAT_ID":"3291","OBJECT_TYPE":"PAYLOAD","PERIOD":"1348.720","INCLINATION":"1.0998","APOGEE":"34382.623","PERIGEE":"33734.351","ECCENTRICITY":"0.0080159","MEAN_MOTION":"1.0676784","TLE_LINE1":"1 03291U 68050H   16238.73915709 -.00000145  00000-0  00000+0 0  9995","TLE_LINE2":"2 03291   1.0998 347.5106 0080159 128.2537 220.9759  1.06767840187774","LAUNCH_DATE":"1968-06-13","LAUNCH_SITE":"AIR FORCE EASTERN TEST RANGE","OWNER":"UNITED STATES OF AMERICA","ORBIT_TYPE":"Unclassified","OPERATIONAL_STATUS":"Nonoperational","satInfo":{"lng":1.974478301891916,"lat":0.13119359088050736,"elevation":-8.875427063414742,"azimuth":313.0255216981081,"range":40608.49906751054,"height":33744.22612122821,"velocity":3.164200952319199},"x":8,"y":-266,"dx":3.1623222821153645,"dy":0.10902041411771732},{"OBJECT_ID":"1968-050J","OBJECT_NAME":"TITAN 3C TRANSTAGE R/B","NORAD_CAT_ID":"3292","OBJECT_TYPE":"ROCKET BODY","PERIOD":"1363.687","INCLINATION":"1.0834","APOGEE":"35016.659","PERIGEE":"33697.522","ECCENTRICITY":"0.0161916","MEAN_MOTION":"1.05596023","TLE_LINE1":"1 03292U 68050J   16238.29399822 -.00000216  00000-0  00000+0 0  9998","TLE_LINE2":"2 03292   1.0834  22.9728 0161916 322.9853 342.0744  1.05596023 91285","LAUNCH_DATE":"1968-06-13","LAUNCH_SITE":"AIR FORCE EASTERN TEST RANGE","OWNER":"UNITED STATES OF AMERICA","ORBIT_TYPE":"Unclassified","OPERATIONAL_STATUS":"N/A, derelict rocket body","satInfo":{"lng":-10.320840229775694,"lat":1.6599016188675533,"elevation":-7.203912442197874,"azimuth":325.32084022977574,"range":41247.58050149348,"height":34561.001991089885,"velocity":3.1125610355293385},"x":-47,"y":-268,"dx":3.0621996019120137,"dy":-0.5576466604807855},{"OBJECT_ID":"1983-026C","OBJECT_NAME":"IUS R/B(2)","NORAD_CAT_ID":"13970","OBJECT_TYPE":"ROCKET BODY","PERIOD":"1089.613","INCLINATION":"1.6641","APOGEE":"35236.717","PERIGEE":"22158.744","ECCENTRICITY":"0.1864241","MEAN_MOTION":"1.32156997","TLE_LINE1":"1 13970U 83026C   16239.42938936 -.00000151  00000-0  00000+0 0  9991","TLE_LINE2":"2 13970   1.6641 344.7999 1864241 156.0560 103.9895  1.32156997161202","LAUNCH_DATE":"1983-04-04","LAUNCH_SITE":"AIR FORCE EASTERN TEST RANGE","OWNER":"UNITED STATES OF AMERICA","ORBIT_TYPE":"Unclassified","OPERATIONAL_STATUS":"N/A, derelict rocket body","satInfo":{"lng":-17.757231695358634,"lat":0.3109968659454933,"elevation":-11.128507247215786,"azimuth":332.75723169535866,"range":32053.440672539575,"height":25073.05762892705,"velocity":3.739474534236521},"x":-57,"y":-188,"dx":3.561315919577616,"dy":-1.1404817899319957},{"OBJECT_ID":"1995-073A","OBJECT_NAME":"ECHOSTAR 1","NORAD_CAT_ID":"23754","OBJECT_TYPE":"PAYLOAD","PERIOD":"1436.120","INCLINATION":"0.1914","APOGEE":"35800.679","PERIGEE":"35773.457","ECCENTRICITY":"0.0003228","MEAN_MOTION":"1.00270103","TLE_LINE1":"1 23754U 95073A   16238.99147818 -.00000268  00000-0  00000+0 0  9998","TLE_LINE2":"2 23754   0.1914  92.1924 0003228  95.8870  66.2512  1.00270103 75522","LAUNCH_DATE":"1995-12-28","LAUNCH_SITE":"Xichang Space Center, China","OWNER":"UNITED STATES OF AMERICA","ORBIT_TYPE":"Geosynchronous","OPERATIONAL_STATUS":"Operational","satInfo":{"lng":-95.80237621170846,"lat":-1.6999698991928864,"elevation":-10.225546288238487,"azimuth":50.802376211708435,"range":42853.42560758126,"height":35813.17917638366,"velocity":3.0732192232915745},"x":-267,"y":28,"dx":-0.31069495714648965,"dy":-3.0574736365196364},{"OBJECT_ID":"1996-021A","OBJECT_NAME":"ASTRA 1F","NORAD_CAT_ID":"23842","OBJECT_TYPE":"PAYLOAD","PERIOD":"1436.129","INCLINATION":"0.1111","APOGEE":"35803.378","PERIGEE":"35771.088","ECCENTRICITY":"0.0003829","MEAN_MOTION":"1.00269515","TLE_LINE1":"1 23842U 96021A   16239.08104855  .00000111  00000-0  00000+0 0  9991","TLE_LINE2":"2 23842   0.1111 291.4336 0003829 228.8637 247.9319  1.00269515 74411","LAUNCH_DATE":"1996-04-08","LAUNCH_SITE":"TYURATAM MISSILE AND SPACE COMPLEX","OWNER":"SOCIÉTÉ EUROPÉENNE DES SATELLITES","ORBIT_TYPE":"Geosynchronous","OPERATIONAL_STATUS":"Operational","satInfo":{"lng":99.76843916906569,"lat":-1.5203608992732904,"elevation":-10.060395650648633,"azimuth":215.23156083093428,"range":42786.08171696715,"height":35764.893923348616,"velocity":3.0758735531681527},"x":263,"y":48,"dx":-0.5218732257995408,"dy":3.0312780227608385},{"OBJECT_ID":"1996-054A","OBJECT_NAME":"AMC-1 (GE-1)","NORAD_CAT_ID":"24315","OBJECT_TYPE":"PAYLOAD","PERIOD":"1436.073","INCLINATION":"0.9541","APOGEE":"35797.333","PERIGEE":"35774.952","ECCENTRICITY":"0.0002654","MEAN_MOTION":"1.00273403","TLE_LINE1":"1 24315U 96054A   16239.42792717  .00000030  00000-0  00000+0 0  9991","TLE_LINE2":"2 24315   0.9541  86.5770 0002654  79.0417 194.3824  1.00273403 73117","LAUNCH_DATE":"1996-09-08","LAUNCH_SITE":"AIR FORCE EASTERN TEST RANGE","OWNER":"SOCIÉTÉ EUROPÉENNE DES SATELLITES","ORBIT_TYPE":"Geosynchronous","OPERATIONAL_STATUS":"Operational","satInfo":{"lng":-110.50982982560431,"lat":-2.5535158794372825,"elevation":-11.060514734233024,"azimuth":65.50982982560429,"range":42918.27256220874,"height":35784.756806398174,"velocity":3.0743590048782745},"x":-251,"y":99,"dx":-1.0771572440262482,"dy":-2.8794818218766225},{"OBJECT_ID":"1997-026A","OBJECT_NAME":"GALAXY 25 (TELSTAR 5)","NORAD_CAT_ID":"24812","OBJECT_TYPE":"PAYLOAD","PERIOD":"1436.071","INCLINATION":"0.0213","APOGEE":"35798.948","PERIGEE":"35773.270","ECCENTRICITY":"0.0003045","MEAN_MOTION":"1.00273525","TLE_LINE1":"1 24812U 97026A   16237.33351853 -.00000187  00000-0  00000+0 0  9997","TLE_LINE2":"2 24812   0.0213  89.3493 0003045  60.9767 209.6875  1.00273525 70423","LAUNCH_DATE":"1997-05-24","LAUNCH_SITE":"TYURATAM MISSILE AND SPACE COMPLEX","OWNER":"UNITED STATES OF AMERICA","ORBIT_TYPE":"Geosynchronous","OPERATIONAL_STATUS":"Operational","satInfo":{"lng":-103.06974546874268,"lat":-1.71222436164754,"elevation":-10.239568040075586,"azimuth":58.06974546874265,"range":42844.275421858925,"height":35802.57537230793,"velocity":3.07373456730549},"x":-261,"y":64,"dx":-0.6950850414277708,"dy":-2.9941110492819103},{"OBJECT_ID":"1997-050A","OBJECT_NAME":"AMC-3 (GE-3)","NORAD_CAT_ID":"24936","OBJECT_TYPE":"PAYLOAD","PERIOD":"1436.118","INCLINATION":"0.0598","APOGEE":"35794.614","PERIGEE":"35779.417","ECCENTRICITY":"0.0001802","MEAN_MOTION":"1.0027029","TLE_LINE1":"1 24936U 97050A   16238.88624978 -.00000300 +00000-0 +00000-0 0  9991","TLE_LINE2":"2 24936 000.0598 285.1641 0001802 275.0087 026.4477 01.00270290016520","LAUNCH_DATE":"1997-09-04","LAUNCH_SITE":"AIR FORCE EASTERN TEST RANGE","OWNER":"SOCIÉTÉ EUROPÉENNE DES SATELLITES","ORBIT_TYPE":"Geosynchronous","OPERATIONAL_STATUS":"Operational","satInfo":{"lng":-82.36245384065602,"lat":1.4881784046288917,"elevation":-7.113128435293516,"azimuth":37.362453840655995,"range":42499.17115485902,"height":35808.157975036724,"velocity":3.0736353368134592},"x":-265,"y":-38,"dx":0.40850429967435314,"dy":-3.0463680704826124}]